{
"type": "FeatureCollection",
"name": "nacka",
"crs": { "type": "name", "properties": { "name": "urn:ogc:def:crs:OGC:1.3:CRS84" } },
"features": [
{ "type": "Feature", "properties": { }, "geometry": { "type": "Polygon", "coordinates": [ [ [ 18.1054016, 59.3137197 ], [ 18.1056083, 59.3136443 ], [ 18.1057616, 59.3135831 ], [ 18.1057484, 59.3135793 ], [ 18.1077531, 59.3126166 ], [ 18.1075882, 59.312381 ], [ 18.1077, 59.3120754 ], [ 18.1086841, 59.3114448 ], [ 18.1088269, 59.3114152 ], [ 18.1090486, 59.3113635 ], [ 18.1093911, 59.311324 ], [ 18.109486, 59.3113474 ], [ 18.1100909, 59.3109598 ], [ 18.1109022, 59.3103969 ], [ 18.1121316, 59.3096079 ], [ 18.1130144, 59.3090194 ], [ 18.112949, 59.3090024 ], [ 18.1130902, 59.3089173 ], [ 18.1126666, 59.3089324 ], [ 18.1125914, 59.3085647 ], [ 18.112981, 59.3065494 ], [ 18.1129711, 59.3060589 ], [ 18.1132401, 59.3060356 ], [ 18.1133506, 59.3054683 ], [ 18.1133538, 59.3052688 ], [ 18.1133956, 59.3051294 ], [ 18.113416, 59.3050758 ], [ 18.1134916, 59.304949 ], [ 18.1135345, 59.3048583 ], [ 18.113582, 59.3047892 ], [ 18.1136428, 59.3047227 ], [ 18.1137164, 59.3046599 ], [ 18.113802, 59.304601 ], [ 18.113899, 59.304547 ], [ 18.114006, 59.3044983 ], [ 18.1141163, 59.3044528 ], [ 18.1141865, 59.3044165 ], [ 18.1142385, 59.3043727 ], [ 18.1142711, 59.3043235 ], [ 18.1142793, 59.3042877 ], [ 18.114266, 59.3042213 ], [ 18.114224, 59.3041031 ], [ 18.1141867, 59.3040451 ], [ 18.1141343, 59.3039903 ], [ 18.114066, 59.3039387 ], [ 18.113857, 59.3038063 ], [ 18.113642, 59.3036764 ], [ 18.1134211, 59.3035491 ], [ 18.1131943, 59.3034246 ], [ 18.1129617, 59.3033029 ], [ 18.112734, 59.3031905 ], [ 18.1121301, 59.3029033 ], [ 18.1119743, 59.3023869 ], [ 18.1113417, 59.3021874 ], [ 18.1106092, 59.3019621 ], [ 18.1109726, 59.3018217 ], [ 18.1117915, 59.3017808 ], [ 18.1131842, 59.3015564 ], [ 18.1154012, 59.3013193 ], [ 18.1163751, 59.3011554 ], [ 18.1174108, 59.3012636 ], [ 18.1186466, 59.3013286 ], [ 18.1203803, 59.3012207 ], [ 18.1234246, 59.3014591 ], [ 18.1253476, 59.3012346 ], [ 18.1268062, 59.3010643 ], [ 18.1276805, 59.3011589 ], [ 18.1282194, 59.3012224 ], [ 18.130138, 59.3012662 ], [ 18.1217829, 59.294974 ], [ 18.1205403, 59.2941222 ], [ 18.119346, 59.2938288 ], [ 18.1216244, 59.2902667 ], [ 18.1233056, 59.2883682 ], [ 18.1246439, 59.2877632 ], [ 18.1388675, 59.2814013 ], [ 18.1429523, 59.2796353 ], [ 18.15207, 59.2737862 ], [ 18.1518831, 59.2735599 ], [ 18.1513782, 59.2730024 ], [ 18.1510946, 59.2725546 ], [ 18.1510872, 59.2724303 ], [ 18.150834, 59.2721666 ], [ 18.1507916, 59.2720476 ], [ 18.1505651, 59.2716281 ], [ 18.1502702, 59.2712387 ], [ 18.1503347, 59.2710883 ], [ 18.1503141, 59.2709147 ], [ 18.1502665, 59.2708478 ], [ 18.1502818, 59.2706454 ], [ 18.150448, 59.2702022 ], [ 18.1500147, 59.2698071 ], [ 18.1496763, 59.2695322 ], [ 18.1497599, 59.269305 ], [ 18.1497892, 59.269125 ], [ 18.149916, 59.2686581 ], [ 18.1497423, 59.2680119 ], [ 18.1497274, 59.2657543 ], [ 18.1703412, 59.2626987 ], [ 18.1695826, 59.2569641 ], [ 18.1704628, 59.2554239 ], [ 18.1703561, 59.2549706 ], [ 18.1707408, 59.2520529 ], [ 18.1747787, 59.2511809 ], [ 18.1748475, 59.2509984 ], [ 18.1757738, 59.2498969 ], [ 18.1759848, 59.2496395 ], [ 18.1767621, 59.2487169 ], [ 18.1806998, 59.2462718 ], [ 18.1835917, 59.2461613 ], [ 18.1862631, 59.2467512 ], [ 18.1901394, 59.2470363 ], [ 18.1984329, 59.2500813 ], [ 18.1994388, 59.2504076 ], [ 18.2002538, 59.2506177 ], [ 18.2012079, 59.250811 ], [ 18.2019923, 59.2509321 ], [ 18.2030108, 59.2510397 ], [ 18.2041589, 59.251095 ], [ 18.2051921, 59.2510886 ], [ 18.2057875, 59.2515095 ], [ 18.2064056, 59.2513035 ], [ 18.2070396, 59.2510954 ], [ 18.2072582, 59.2510281 ], [ 18.2085961, 59.2505811 ], [ 18.2110553, 59.2497791 ], [ 18.2114101, 59.2496538 ], [ 18.2125705, 59.2492742 ], [ 18.213026, 59.2491235 ], [ 18.2144341, 59.2486635 ], [ 18.2149874, 59.2484864 ], [ 18.2150385, 59.248541 ], [ 18.2149595, 59.2485604 ], [ 18.2149975, 59.248601 ], [ 18.2150764, 59.2485815 ], [ 18.215183, 59.2486954 ], [ 18.2156685, 59.2485794 ], [ 18.2211634, 59.2497806 ], [ 18.2216932, 59.2498995 ], [ 18.2218018, 59.2499209 ], [ 18.2219252, 59.2499428 ], [ 18.2228131, 59.2500935 ], [ 18.2230553, 59.2518944 ], [ 18.2232083, 59.2522997 ], [ 18.2235307, 59.2525125 ], [ 18.2296994, 59.2522632 ], [ 18.2298188, 59.2528885 ], [ 18.2366291, 59.2528557 ], [ 18.2366393, 59.2524967 ], [ 18.239047, 59.2529204 ], [ 18.24051, 59.2531812 ], [ 18.2411739, 59.2532973 ], [ 18.2439047, 59.25378 ], [ 18.2458367, 59.2541239 ], [ 18.248919, 59.2546693 ], [ 18.2551798, 59.2538853 ], [ 18.2584195, 59.2534863 ], [ 18.2620634, 59.252982 ], [ 18.2644701, 59.2526505 ], [ 18.2653663, 59.2548566 ], [ 18.2657554, 59.2558067 ], [ 18.2659201, 59.2561889 ], [ 18.266047, 59.2565116 ], [ 18.266229, 59.2569429 ], [ 18.2662871, 59.2570496 ], [ 18.2668277, 59.2572666 ], [ 18.2672462, 59.2574513 ], [ 18.2686434, 59.2580572 ], [ 18.2695418, 59.2584342 ], [ 18.2696324, 59.2584761 ], [ 18.2699115, 59.2585944 ], [ 18.2701183, 59.2586821 ], [ 18.2800504, 59.2629403 ], [ 18.2906997, 59.2578349 ], [ 18.2970764, 59.2547557 ], [ 18.3087059, 59.2518138 ], [ 18.3312159, 59.250221 ], [ 18.3853362, 59.231492 ], [ 18.3854491, 59.2328383 ], [ 18.3862053, 59.2401681 ], [ 18.3881125, 59.2591805 ], [ 18.388902, 59.2635359 ], [ 18.3745753, 59.2661015 ], [ 18.3626707, 59.2692546 ], [ 18.3561263, 59.2709827 ], [ 18.3485128, 59.2728548 ], [ 18.3344855, 59.2776788 ], [ 18.3255865, 59.2790073 ], [ 18.3205601, 59.2859151 ], [ 18.3236542, 59.2899817 ], [ 18.3216654, 59.2982588 ], [ 18.3217665, 59.3067719 ], [ 18.3255859, 59.3125541 ], [ 18.3229076, 59.315577 ], [ 18.3192366, 59.3196366 ], [ 18.3266686, 59.3239748 ], [ 18.3268081, 59.3243376 ], [ 18.327556, 59.3248081 ], [ 18.3272161, 59.3249826 ], [ 18.3267151, 59.325091 ], [ 18.326609, 59.3251722 ], [ 18.3266228, 59.3252829 ], [ 18.3267638, 59.3254091 ], [ 18.3272258, 59.3256733 ], [ 18.3279361, 59.3260962 ], [ 18.3284126, 59.3259638 ], [ 18.3287864, 59.325914 ], [ 18.3294395, 59.3259525 ], [ 18.3294562, 59.3259507 ], [ 18.3312769, 59.3270458 ], [ 18.3317336, 59.3273184 ], [ 18.3331204, 59.3281537 ], [ 18.3277389, 59.3317995 ], [ 18.3412517, 59.3289917 ], [ 18.3446774, 59.3297162 ], [ 18.3485598, 59.3305626 ], [ 18.3487939, 59.3315161 ], [ 18.3488104, 59.3316036 ], [ 18.3490072, 59.3316691 ], [ 18.3496864, 59.3319043 ], [ 18.3625183, 59.3355805 ], [ 18.3685321, 59.3366382 ], [ 18.3737591, 59.3382988 ], [ 18.3696565, 59.3400738 ], [ 18.3684877, 59.3406007 ], [ 18.3666995, 59.3413818 ], [ 18.3639577, 59.3426116 ], [ 18.3637033, 59.3427257 ], [ 18.3600153, 59.344321 ], [ 18.3556586, 59.3456013 ], [ 18.3514975, 59.3466131 ], [ 18.3487984, 59.354327 ], [ 18.3505865, 59.3550137 ], [ 18.34987, 59.355527 ], [ 18.3495989, 59.3556936 ], [ 18.3493981, 59.3558512 ], [ 18.3484537, 59.3564368 ], [ 18.348413, 59.3565499 ], [ 18.3468456, 59.3584577 ], [ 18.3462752, 59.3590808 ], [ 18.3401527, 59.3610448 ], [ 18.3383954, 59.3616345 ], [ 18.3365643, 59.3667054 ], [ 18.3247714, 59.3690005 ], [ 18.3007512, 59.3687018 ], [ 18.2987356, 59.3686777 ], [ 18.2962122, 59.3666877 ], [ 18.2920067, 59.3659625 ], [ 18.2907752, 59.3657452 ], [ 18.2749954, 59.3629755 ], [ 18.265328, 59.3612778 ], [ 18.2640613, 59.3610567 ], [ 18.2620582, 59.3607033 ], [ 18.2486829, 59.3546422 ], [ 18.2276979, 59.3451304 ], [ 18.2189986, 59.3411865 ], [ 18.213824, 59.3388404 ], [ 18.2126956, 59.3383952 ], [ 18.2098545, 59.3372743 ], [ 18.2049733, 59.3360501 ], [ 18.1966299, 59.3349352 ], [ 18.1938105, 59.3345584 ], [ 18.1893647, 59.334343 ], [ 18.1869163, 59.3303913 ], [ 18.1871751, 59.3291657 ], [ 18.1827507, 59.3264735 ], [ 18.1775926, 59.324867 ], [ 18.1754841, 59.3244937 ], [ 18.1730788, 59.3243033 ], [ 18.163893, 59.3253325 ], [ 18.1603166, 59.3208432 ], [ 18.15717, 59.319816 ], [ 18.1492465, 59.3186593 ], [ 18.1444807, 59.3195243 ], [ 18.1385727, 59.3202328 ], [ 18.1333553, 59.3195716 ], [ 18.1294304, 59.3196456 ], [ 18.1268289, 59.3184477 ], [ 18.1243704, 59.3180405 ], [ 18.1203515, 59.3185146 ], [ 18.1164843, 59.3178741 ], [ 18.1149841, 59.3177383 ], [ 18.1124884, 59.3175038 ], [ 18.1102407, 59.3175316 ], [ 18.1093278, 59.3176801 ], [ 18.1085907, 59.315107 ], [ 18.1083311, 59.3150614 ], [ 18.1081051, 59.3150218 ], [ 18.1078475, 59.3151493 ], [ 18.107515, 59.3149581 ], [ 18.1075402, 59.3149461 ], [ 18.1054016, 59.3137197 ] ] ] } }
]
}
