{"type" : "FeatureCollection", "features" : [{"type": "Feature", "geometry": {"type":"Polygon","coordinates":[[[18.0248052,59.3159282],[18.0302781,59.3142694],[18.0356171,59.3118944],[18.0370457,59.3112725],[18.0373059,59.3110782],[18.0375521,59.3108815],[18.0471829,59.308712],[18.0507325,59.3076515],[18.0520027,59.3071941],[18.0661284,59.3033908],[18.0709733,59.3028069],[18.0734464,59.3027296],[18.0759195,59.3029049],[18.0794928,59.3034496],[18.0816875,59.3038128],[18.0974885,59.3073872],[18.099097,59.3080769],[18.1002873,59.3092263],[18.1017275,59.3120322],[18.1041134,59.313568],[18.1042475,59.3135909],[18.1047566,59.3139061],[18.1054016,59.3137197],[18.1075402,59.3149461],[18.107515,59.3149581],[18.1078475,59.3151493],[18.1081051,59.3150218],[18.1083311,59.3150614],[18.1085907,59.315107],[18.1093278,59.3176801],[18.107316,59.317894],[18.0938966,59.3193809],[18.0823906,59.3206557],[18.0815771,59.3207376],[18.0751611,59.3208727],[18.0717889,59.3216235],[18.0668286,59.3218454],[18.0636206,59.3228577],[18.0585852,59.323792],[18.0432723,59.3238146],[18.0394745,59.3206336],[18.0361539,59.3202186],[18.0351204,59.3201905],[18.0344905,59.3201967],[18.0287727,59.3193917],[18.0269992,59.3194291],[18.0260452,59.318362],[18.025819,59.317638],[18.0248052,59.3159282]]]}, "properties": {"osm_id": -5695402, "name": "Södermalm", "name_en": null, "boundary": "administrative", "admin_level": 10, "admin_centre_node_id": null, "admin_centre_node_lat": null, "admin_centre_node_lng": null, "label_node_id": null, "label_node_lat": null, "label_node_lng": null}}]}