{
"type": "FeatureCollection",
"name": "tartu",
"crs": { "type": "name", "properties": { "name": "urn:ogc:def:crs:OGC:1.3:CRS84" } },
"features": [
{ "type": "Feature", "properties": { "name": "tartu", "osm_id": 2153396 }, "geometry": { "type": "Polygon", "coordinates": [ [ [ 26.6670755, 58.4057977 ], [ 26.6706207, 58.4002807 ], [ 26.6745094, 58.3942686 ], [ 26.6763498, 58.3913911 ], [ 26.6772502, 58.3899974 ], [ 26.6772974, 58.3899227 ], [ 26.6782195, 58.3884921 ], [ 26.6830425, 58.3809506 ], [ 26.6785158, 58.3790246 ], [ 26.6770287, 58.3790156 ], [ 26.6764934, 58.3789005 ], [ 26.6763247, 58.3786185 ], [ 26.6766137, 58.3780607 ], [ 26.6775851, 58.3760922 ], [ 26.6777659, 58.3754905 ], [ 26.6781461, 58.3741991 ], [ 26.6783488, 58.3728074 ], [ 26.6782684, 58.3696295 ], [ 26.6781287, 58.3670835 ], [ 26.6779895, 58.3648066 ], [ 26.6779308, 58.3633639 ], [ 26.6780277, 58.3613259 ], [ 26.6763637, 58.3604208 ], [ 26.6758672, 58.3605414 ], [ 26.6755673, 58.3602021 ], [ 26.6752674, 58.3599244 ], [ 26.6752175, 58.3598782 ], [ 26.6752023, 58.3598641 ], [ 26.6750342, 58.3599003 ], [ 26.6749093, 58.3598583 ], [ 26.6746001, 58.3599073 ], [ 26.6743662, 58.3599444 ], [ 26.6741507, 58.3599785 ], [ 26.673966, 58.3600078 ], [ 26.6738217, 58.3600306 ], [ 26.6737154, 58.3600475 ], [ 26.6737051, 58.3600491 ], [ 26.6736791, 58.3600288 ], [ 26.6730793, 58.3602003 ], [ 26.6727398, 58.3598712 ], [ 26.6730133, 58.3597931 ], [ 26.6731011, 58.359768 ], [ 26.6713838, 58.358083 ], [ 26.6717336, 58.3579939 ], [ 26.6717669, 58.3579854 ], [ 26.6712712, 58.3577273 ], [ 26.6710006, 58.3577973 ], [ 26.6707166, 58.3574396 ], [ 26.6698819, 58.3570054 ], [ 26.6706988, 58.356809 ], [ 26.6706733, 58.3567798 ], [ 26.6709493, 58.3567133 ], [ 26.6714086, 58.3562191 ], [ 26.6738981, 58.3535406 ], [ 26.6749537, 58.3536802 ], [ 26.6753693, 58.3528593 ], [ 26.6772427, 58.3531166 ], [ 26.6754594, 58.3518749 ], [ 26.6755315, 58.3518383 ], [ 26.6760179, 58.3515774 ], [ 26.6788042, 58.3489082 ], [ 26.6835967, 58.3439371 ], [ 26.6843254, 58.3433767 ], [ 26.6846558, 58.3432267 ], [ 26.6849687, 58.3431256 ], [ 26.6872389, 58.3442323 ], [ 26.694057, 58.3475553 ], [ 26.6942824, 58.3474047 ], [ 26.6943604, 58.3473526 ], [ 26.6943934, 58.3473306 ], [ 26.6946273, 58.3471744 ], [ 26.7017621, 58.3449431 ], [ 26.7040315, 58.3450987 ], [ 26.7065869, 58.3452739 ], [ 26.7074762, 58.3453349 ], [ 26.7095388, 58.3453009 ], [ 26.7098062, 58.3452965 ], [ 26.712173, 58.3452586 ], [ 26.7123331, 58.3452548 ], [ 26.7127547, 58.3452478 ], [ 26.7128992, 58.3444469 ], [ 26.7129611, 58.344104 ], [ 26.7130213, 58.3437703 ], [ 26.7130657, 58.3435244 ], [ 26.713147, 58.3430738 ], [ 26.7133027, 58.3423148 ], [ 26.713368, 58.3417418 ], [ 26.7136051, 58.3405344 ], [ 26.714289, 58.3407676 ], [ 26.7143602, 58.3407919 ], [ 26.714611, 58.3408774 ], [ 26.7146628, 58.340333 ], [ 26.7160129, 58.3403517 ], [ 26.7193443, 58.3403979 ], [ 26.7203645, 58.3404121 ], [ 26.7244732, 58.3404691 ], [ 26.7244983, 58.3392347 ], [ 26.7250167, 58.3392291 ], [ 26.7251455, 58.3392278 ], [ 26.7252667, 58.3392278 ], [ 26.73106, 58.3392277 ], [ 26.7313711, 58.3392262 ], [ 26.7337133, 58.3392256 ], [ 26.7352192, 58.3392271 ], [ 26.7397892, 58.3392241 ], [ 26.740502, 58.3392239 ], [ 26.7409387, 58.3392238 ], [ 26.7456585, 58.3392226 ], [ 26.7482994, 58.3412043 ], [ 26.7500654, 58.3425294 ], [ 26.7517053, 58.3427216 ], [ 26.7536956, 58.3430435 ], [ 26.7551239, 58.3433887 ], [ 26.755928, 58.3436246 ], [ 26.7569834, 58.3440078 ], [ 26.7576305, 58.3442557 ], [ 26.7582206, 58.3445229 ], [ 26.7591134, 58.3449868 ], [ 26.7597845, 58.345398 ], [ 26.7604532, 58.3458548 ], [ 26.7609629, 58.3456845 ], [ 26.7622596, 58.3452405 ], [ 26.7656174, 58.3434023 ], [ 26.7673807, 58.3428763 ], [ 26.7697226, 58.3423361 ], [ 26.7723495, 58.3426151 ], [ 26.7733945, 58.3423798 ], [ 26.7741458, 58.3420436 ], [ 26.7745766, 58.3415866 ], [ 26.7750849, 58.3396837 ], [ 26.7753209, 58.3390114 ], [ 26.7759871, 58.3392807 ], [ 26.7761447, 58.3393318 ], [ 26.7791572, 58.3403073 ], [ 26.7853167, 58.3423398 ], [ 26.7865312, 58.3427475 ], [ 26.7866845, 58.342797 ], [ 26.7912011, 58.3442501 ], [ 26.7913933, 58.3443188 ], [ 26.7911523, 58.3462411 ], [ 26.7908011, 58.3483785 ], [ 26.7881807, 58.3506579 ], [ 26.7899458, 58.3524411 ], [ 26.7927846, 58.3552746 ], [ 26.795123, 58.3575378 ], [ 26.7962514, 58.3586302 ], [ 26.7964379, 58.3588303 ], [ 26.7965116, 58.359561 ], [ 26.7965821, 58.3611872 ], [ 26.7966082, 58.3613915 ], [ 26.7966725, 58.3615674 ], [ 26.7967946, 58.3618172 ], [ 26.7980072, 58.3635999 ], [ 26.7939907, 58.3637838 ], [ 26.7872442, 58.3640429 ], [ 26.7827699, 58.364436 ], [ 26.7808022, 58.3646088 ], [ 26.7810932, 58.3654417 ], [ 26.7817053, 58.3671933 ], [ 26.7821433, 58.3690217 ], [ 26.7834549, 58.3691289 ], [ 26.7839122, 58.371286 ], [ 26.7829176, 58.3715919 ], [ 26.7827815, 58.3727899 ], [ 26.7827147, 58.3733127 ], [ 26.7826127, 58.3741739 ], [ 26.7835978, 58.3751029 ], [ 26.7841584, 58.3754376 ], [ 26.7837346, 58.3755661 ], [ 26.7792123, 58.3770029 ], [ 26.7787492, 58.3777842 ], [ 26.77815, 58.3779705 ], [ 26.7774232, 58.3781964 ], [ 26.7773978, 58.3782043 ], [ 26.7752349, 58.378905 ], [ 26.7753429, 58.379557 ], [ 26.7754652, 58.3803334 ], [ 26.775543, 58.3811265 ], [ 26.7756825, 58.3822711 ], [ 26.7754613, 58.3829919 ], [ 26.7753371, 58.3834001 ], [ 26.7753224, 58.3834148 ], [ 26.7737884, 58.3849493 ], [ 26.7718082, 58.3868811 ], [ 26.7716521, 58.3870354 ], [ 26.7688468, 58.3898082 ], [ 26.7663357, 58.3893912 ], [ 26.7635328, 58.3874918 ], [ 26.7601894, 58.3883486 ], [ 26.7598122, 58.3884453 ], [ 26.7583801, 58.3888123 ], [ 26.7545698, 58.3903193 ], [ 26.7528174, 58.3909722 ], [ 26.7439321, 58.3942828 ], [ 26.7448117, 58.395174 ], [ 26.7458568, 58.3961167 ], [ 26.7486194, 58.3982287 ], [ 26.7443837, 58.4004299 ], [ 26.7415721, 58.4016581 ], [ 26.7414676, 58.4017052 ], [ 26.7395765, 58.400532 ], [ 26.7382633, 58.3997292 ], [ 26.7381197, 58.3996335 ], [ 26.7353914, 58.3968619 ], [ 26.7330389, 58.3980916 ], [ 26.7321845, 58.3985382 ], [ 26.7280297, 58.4006704 ], [ 26.7226669, 58.401798 ], [ 26.7225351, 58.4018257 ], [ 26.722321, 58.4018572 ], [ 26.721814, 58.4019319 ], [ 26.7193127, 58.4023003 ], [ 26.7192409, 58.4023109 ], [ 26.7187258, 58.4023795 ], [ 26.7156542, 58.4027888 ], [ 26.7110166, 58.4039714 ], [ 26.7099897, 58.4041119 ], [ 26.7097967, 58.4041361 ], [ 26.7087268, 58.4042786 ], [ 26.7088741, 58.4065254 ], [ 26.7080088, 58.4066963 ], [ 26.7075832, 58.4089655 ], [ 26.7047651, 58.4086935 ], [ 26.6929834, 58.4108848 ], [ 26.6903092, 58.4103648 ], [ 26.6897858, 58.4102498 ], [ 26.6903211, 58.4092155 ], [ 26.6904664, 58.4087053 ], [ 26.6910033, 58.4073154 ], [ 26.6909357, 58.405507 ], [ 26.6922712, 58.4025194 ], [ 26.6932608, 58.4007913 ], [ 26.6948817, 58.3987613 ], [ 26.6942736, 58.3986336 ], [ 26.6941406, 58.3985906 ], [ 26.693848, 58.3985442 ], [ 26.6936494, 58.3985025 ], [ 26.6935045, 58.398472 ], [ 26.692889, 58.3983449 ], [ 26.6902889, 58.3978019 ], [ 26.6898163, 58.3977029 ], [ 26.6896836, 58.3976751 ], [ 26.6889219, 58.3975154 ], [ 26.6887865, 58.3974881 ], [ 26.6886395, 58.3974549 ], [ 26.6876843, 58.3972395 ], [ 26.6873468, 58.3971634 ], [ 26.6872395, 58.3971392 ], [ 26.6864423, 58.3969763 ], [ 26.6859981, 58.3968856 ], [ 26.685334, 58.3967499 ], [ 26.6819794, 58.3960646 ], [ 26.6810391, 58.395874 ], [ 26.6803771, 58.3957398 ], [ 26.6777687, 58.3992819 ], [ 26.6765038, 58.400977 ], [ 26.6764767, 58.4010132 ], [ 26.675834, 58.4018711 ], [ 26.6750486, 58.4029195 ], [ 26.6747291, 58.403346 ], [ 26.6736655, 58.4045624 ], [ 26.6670755, 58.4057977 ] ] ] } }
]
}
